NORAD_CAT_ID,OBJECT_NAME,OBJECT_TYPE,EPOCH,MEAN_MOTION,ECCENTRICITY,INCLINATION,RA_OF_ASC_NODE,ARG_OF_PERICENTER,MEAN_ANOMALY,BSTAR,MEAN_MOTION_DOT,MEAN_MOTION_DDOT,TLE_LINE0,TLE_LINE1,TLE_LINE2,SEMIMAJOR_AXIS,PERIOD,APOGEE,PERIGEE,DECAYED
49754.0,STARLINK-3193,PAYLOAD,2022-04-01 08:00:01,15.21421622,0.0006442,53.2163,117.3366,269.3676,219.3577,-0.0031951,-0.00072295,0.0,0 STARLINK-3193,1 49754U 21115AG  22091.33334491 -.00072295  00000-0 -31951-2 0  9991,2 49754  53.2163 117.3366 0006442 269.3676 219.3577 15.21421622 19621,6879.689,94.648,505.986,497.122,0.0
49754.0,STARLINK-3193,PAYLOAD,2022-04-01 14:00:01,15.21408353,0.0006035,53.2173,116.1844,269.6157,149.1375,-0.010655,-0.00235009,0.0,0 STARLINK-3193,1 49754U 21115AG  22091.58334491 -.00235009  00000-0 -10655-1 0  9999,2 49754  53.2173 116.1844 0006035 269.6157 149.1375 15.21408353  3631,6879.729,94.649,505.746,497.442,0.0
49754.0,STARLINK-3193,PAYLOAD,2022-04-01 22:00:00,15.2124663,0.0006268,53.2174,114.6567,278.0036,167.3503,-0.010865,-0.00238402,0.0,0 STARLINK-3193,1 49754U 21115AG  22091.91667824 -.00238402  00000-0 -10865-1 0  9998,2 49754  53.2174 114.6567 0006268 278.0036 167.3503 15.21246630 19714,6880.215999999999,94.659,506.394,497.769,0.0
49754.0,STARLINK-3193,PAYLOAD,2022-04-02 22:00:01,15.2055661,0.0006956,53.2161,110.0892,278.0299,246.1171,0.0025609,0.00056909,0.0,0 STARLINK-3193,1 49754U 21115AG  22092.91668981  .00056909  00000-0  25609-2 0  9995,2 49754  53.2161 110.0892 0006956 278.0299 246.1171 15.20556610 19860,6882.2980000000025,94.702,508.95,499.375,0.0
49754.0,STARLINK-3193,PAYLOAD,2022-04-03 06:00:00,15.20393033,0.0006602,53.2164,108.5658,271.8057,278.0946,0.0026804,0.00059312,0.0,0 STARLINK-3193,1 49754U 21115AG  22093.25001157  .00059312  00000-0  26804-2 0  9998,2 49754  53.2164 108.5658 0006602 271.8057 278.0946 15.20393033 19914,6882.791,94.712,509.2,500.112,0.0
49754.0,STARLINK-3193,PAYLOAD,2022-04-03 14:00:01,15.20434975,0.000618,53.2171,107.0346,272.9646,302.4522,-0.011391,-0.00243869,0.0,0 STARLINK-3193,1 49754U 21115AG  22093.58334491 -.00243869  00000-0 -11391-1 0  9992,2 49754  53.2171 107.0346 0006180 272.9646 302.4522 15.20434975 19965,6882.665,94.71,508.783,500.276,0.0
49754.0,STARLINK-3193,PAYLOAD,2022-04-03 22:00:00,15.20269629,0.0005702999999999,53.2172,105.5093,277.7052,323.1399,-0.011246,-0.00239716,0.0,0 STARLINK-3193,1 49754U 21115AG  22093.91667824 -.00239716  00000-0 -11246-1 0  9993,2 49754  53.2172 105.5093 0005703 277.7052 323.1399 15.20269629  3622,6883.1640000000025,94.72,508.954,501.103,0.0
49754.0,STARLINK-3193,PAYLOAD,2022-04-04 14:00:01,15.19945131,0.0006244,53.2171,102.4648,271.118,19.9911,-0.011423,-0.00241171,0.0,0 STARLINK-3193,1 49754U 21115AG  22094.58334491 -.00241171  00000-0 -11423-1 0  9993,2 49754  53.2171 102.4648 0006244 271.1180  19.9911 15.19945131  3632,6884.143,94.74,510.307,501.71,0.0
49754.0,STARLINK-3193,PAYLOAD,2022-04-04 22:00:00,15.19777576,0.0006547999999999,53.2173,100.9409,275.0779,40.8733,-0.011033,-0.00232112,0.0,0 STARLINK-3193,1 49754U 21115AG  22094.91667824 -.00232112  00000-0 -11033-1 0  9991,2 49754  53.2173 100.9409 0006548 275.0779  40.8733 15.19777576  3637,6884.649,94.751,511.022,502.006,0.0
49754.0,STARLINK-3193,PAYLOAD,2022-04-05 00:00:00,15.19739667,0.0006425,53.2175,100.5604,276.1521,135.9766,-0.011185,-0.00234949,0.0,0 STARLINK-3193,1 49754U 21115AG  22095.00001157 -.00234949  00000-0 -11185-1 0  9991,2 49754  53.2175 100.5604 0006425 276.1521 135.9766 15.19739667 20183,6884.764,94.753,511.052,502.205,0.0
49754.0,STARLINK-3193,PAYLOAD,2022-04-05 14:00:01,15.19284394,0.0006888999999999,53.2154,97.9061,272.942,92.2473,0.00085943,0.0001809,0.0,0 STARLINK-3193,1 49754U 21115AG  22095.58335648  .00018090  00000-0  85943-3 0  9999,2 49754  53.2154  97.9061 0006889 272.9420  92.2473 15.19284394  3590,6886.139,94.781,512.748,503.26,0.0
49754.0,STARLINK-3193,PAYLOAD,2022-04-05 22:00:00,15.1908935,0.0007428,53.2157,96.3834,274.964,114.4328,0.0031771,0.00067828,0.0,0 STARLINK-3193,1 49754U 21115AG  22095.91667824  .00067828  00000-0  31771-2 0  9992,2 49754  53.2157  96.3834 0007428 274.9640 114.4328 15.19089350  3591,6886.729,94.794,513.7090000000002,503.478,0.0
49754.0,STARLINK-3193,PAYLOAD,2022-04-06 06:00:02,15.19131953,0.0006695,53.2175,94.8566,281.605,131.808,-0.011655,-0.00240361,0.0,0 STARLINK-3193,1 49754U 21115AG  22096.25002315 -.00240361  00000-0 -11655-1 0  9993,2 49754  53.2175  94.8566 0006695 281.6050 131.8080 15.19131953 20371,6886.6,94.791,513.075,503.854,0.0
49754.0,STARLINK-3193,PAYLOAD,2022-04-06 14:00:01,15.18968193,0.0005819,53.2172,93.3358,268.5024,168.7093,-0.011598,-0.0023808,0.0,0 STARLINK-3193,1 49754U 21115AG  22096.58334491 -.00238080  00000-0 -11598-1 0  9993,2 49754  53.2172  93.3358 0005819 268.5024 168.7093 15.18968193  3628,6887.095,94.801,512.967,504.952,0.0
49754.0,STARLINK-3193,PAYLOAD,2022-04-06 22:00:00,15.18576414,0.0007042,53.2157,91.8211,276.7347,184.2681,0.0043059,0.00090966,0.0,0 STARLINK-3193,1 49754U 21115AG  22096.91667824  .00090966  00000-0  43059-2 0  9994,2 49754  53.2157  91.8211 0007042 276.7347 184.2681 15.18576414  3594,6888.279,94.826,514.995,505.293,0.0
49754.0,STARLINK-3193,PAYLOAD,2022-04-07 14:00:01,15.18481644,0.0006059,53.2172,88.7763,270.8545,236.7682,-0.011971,-0.00242168,0.0,0 STARLINK-3193,1 49754U 21115AG  22097.58334491 -.00242168  00000-0 -11971-1 0  9991,2 49754  53.2172  88.7763 0006059 270.8545 236.7682 15.18481644  3639,6888.566,94.832,514.605,506.257,0.0
49754.0,STARLINK-3193,PAYLOAD,2022-04-07 20:00:01,15.18356838,0.0005865,53.2173,87.6358,276.8745,158.0776,-0.011745,-0.00236905,0.0,0 STARLINK-3193,1 49754U 21115AG  22097.83334491 -.00236905  00000-0 -11745-1 0  9990,2 49754  53.2173  87.6358 0005865 276.8745 158.0776 15.18356838 20613,6888.943,94.839,514.849,506.768,0.0
49754.0,STARLINK-3193,PAYLOAD,2022-04-07 22:00:00,15.18129591,0.0007534,53.2156,87.2627,275.5944,255.2146,0.00099514,0.0002031,0.0,0 STARLINK-3193,1 49754U 21115AG  22097.91667824  .00020310  00000-0  99514-3 0  9999,2 49754  53.2156  87.2627 0007534 275.5944 255.2146 15.18129591  3594,6889.630999999999,94.854,516.686,506.305,0.0
49754.0,STARLINK-3193,PAYLOAD,2022-04-08 14:00:03,15.17993024,0.0006087999999999,53.2173,84.2202,272.6605,303.7405,-0.012194,-0.00243186,0.0,0 STARLINK-3193,1 49754U 21115AG  22098.58336806 -.00243186  00000-0 -12194-1 0  9993,2 49754  53.2173  84.2202 0006088 272.6605 303.7405 15.17993024  3635,6890.044,94.862,516.104,507.714,0.0
49754.0,STARLINK-3193,PAYLOAD,2022-04-08 22:00:00,15.17828623,0.00064,53.2173,82.7011,277.146,321.6222,-0.01209,-0.00240091,0.0,0 STARLINK-3193,1 49754U 21115AG  22098.91667824 -.00240091  00000-0 -12090-1 0  9994,2 49754  53.2173  82.7011 0006400 277.1460 321.6222 15.17828623 20786,6890.541,94.872,516.816,507.996,0.0
49754.0,STARLINK-3193,PAYLOAD,2022-04-09 14:00:01,15.17503071,0.000586,53.2173,79.6677,272.7173,10.4489,-0.012225,-0.00240464,0.0,0 STARLINK-3193,1 49754U 21115AG  22099.58334491 -.00240464  00000-0 -12225-1 0  9993,2 49754  53.2173  79.6677 0005860 272.7173  10.4489 15.17503071  3630,6891.526999999999,94.893,517.43,509.353,0.0
49754.0,STARLINK-3193,PAYLOAD,2022-04-09 22:00:00,15.17337196,0.0006013,53.2175,78.1498,277.8884,27.1851,-0.01191,-0.00233393,0.0,0 STARLINK-3193,1 49754U 21115AG  22099.91667824 -.00233393  00000-0 -11910-1 0  9992,2 49754  53.2175  78.1498 0006013 277.8884  27.1851 15.17337196  3634,6892.029,94.903,518.038,509.75,0.0
49754.0,STARLINK-3193,PAYLOAD,2022-04-10 06:00:02,15.17176103,0.0006753999999999,53.2174,76.6354,282.2894,44.5557,-0.012121,-0.0023637,0.0,0 STARLINK-3193,1 49754U 21115AG  22100.25002315 -.00236370  00000-0 -12121-1 0  9993,2 49754  53.2174  76.6354 0006754 282.2894  44.5557 15.17176103 20982,6892.517,94.913,519.0369999999998,509.727,0.0
49754.0,STARLINK-3193,PAYLOAD,2022-04-10 14:00:01,15.17013865,0.0006037,53.2174,75.1185,272.5487,75.7484,-0.012252,-0.0023773,0.0,0 STARLINK-3193,1 49754U 21115AG  22100.58334491 -.00237730  00000-0 -12252-1 0  9998,2 49754  53.2174  75.1185 0006037 272.5487  75.7484 15.17013865  3624,6893.0080000000025,94.923,519.035,510.712,0.0
49754.0,STARLINK-3193,PAYLOAD,2022-04-10 22:00:00,15.16848791,0.0006184999999999,53.2175,73.6021,278.2522,91.3649,-0.011996,-0.00231862,0.0,0 STARLINK-3193,1 49754U 21115AG  22100.91667824 -.00231862  00000-0 -11996-1 0  9998,2 49754  53.2175  73.6021 0006185 278.2522  91.3649 15.16848791  3624,6893.5080000000025,94.934,519.637,511.11,0.0
49754.0,STARLINK-3193,PAYLOAD,2022-04-11 14:00:01,15.16526522,0.0005886,53.2174,70.5728,274.4808,137.1864,-0.012457,-0.00238326,0.0,0 STARLINK-3193,1 49754U 21115AG  22101.58334491 -.00238326  00000-0 -12457-1 0  9998,2 49754  53.2174  70.5728 0005886 274.4808 137.1864 15.16526522 21189,6894.485,94.954,520.408,512.2919999999998,0.0
49754.0,STARLINK-3193,PAYLOAD,2022-04-11 22:00:00,15.16363563,0.0006843999999999,53.2174,69.0575,281.5821,150.8179,-0.012458,-0.0023732,0.0,0 STARLINK-3193,1 49754U 21115AG  22101.91667824 -.00237320  00000-0 -12458-1 0  9998,2 49754  53.2174  69.0575 0006844 281.5821 150.8179 15.16363563  3614,6894.979,94.964,521.563,512.125,0.0
49754.0,STARLINK-3193,PAYLOAD,2022-04-12 14:00:01,15.16040202,0.000608,53.2174,66.0305,277.6556,195.6216,-0.012834,-0.00242031,0.0,0 STARLINK-3193,1 49754U 21115AG  22102.58334491 -.00242031  00000-0 -12834-1 0  9996,2 49754  53.2174  66.0305 0006080 277.6556 195.6216 15.16040202  3616,6895.959,94.984,522.0169999999998,513.632,0.0
49754.0,STARLINK-3193,PAYLOAD,2022-04-12 22:00:00,15.15729567,0.0007517,53.2157,64.5222,276.8571,216.6376,-0.00094789,-0.0001856,0.0,0 STARLINK-3193,1 49754U 21115AG  22102.91667824 -.00018560  00000-0 -94789-3 0  9991,2 49754  53.2157  64.5222 0007517 276.8571 216.6376 15.15729567 21384,6896.901999999999,95.004,523.951,513.582,0.0
